STARLINK-1983
1 27630C 21012L   21325.16578118  .00007644  00000-0  51227-3 0  3250
2 27630  53.0543 257.4695 0001669  72.1167 256.3494 15.06384709    13
